{
  "norad_id": 68134,
  "name": "GUOWANG GROUP 20 OBJECT F",
  "history": [
    {
      "epoch": "2026-03-24T02:31:27.101856Z",
      "apogee_km": 887.5557542340266,
      "perigee_km": 886.8652556071584,
      "latitude_deg": 2.8854888856268914e-05,
      "longitude_deg": 152.1994868630324,
      "height_km": 887.9889860262042,
      "semi_major_axis_km": 7265.347504920592,
      "eccentricity": 4.752e-05,
      "inclination_deg": 50.0123,
      "raan_deg": 11.6502,
      "arg_perigee_deg": 222.9253,
      "mean_anomaly_deg": 137.1614,
      "mean_motion_rev_day": 14.01903676
    }
  ]
}